NORAD_CAT_ID,OBJECT_NAME,OBJECT_TYPE,EPOCH,MEAN_MOTION,ECCENTRICITY,INCLINATION,RA_OF_ASC_NODE,ARG_OF_PERICENTER,MEAN_ANOMALY,BSTAR,MEAN_MOTION_DOT,MEAN_MOTION_DDOT,TLE_LINE0,TLE_LINE1,TLE_LINE2,SEMIMAJOR_AXIS,PERIOD,APOGEE,PERIGEE,DECAYED
53979.0,STARLINK-5123,PAYLOAD,2023-12-06 08:10:13,15.0885422,0.0002841,53.2169,319.7642,88.1611,271.9706,0.00017968,2.573e-05,0.0,0 STARLINK-5123,1 53979U 22125R   23340.34043633  .00002573  00000-0  17968-3 0  9994,2 53979  53.2169 319.7642 0002841  88.1611 271.9706 15.08854220 64943,6917.837,95.437,541.667,537.737,0.0
53979.0,STARLINK-5123,PAYLOAD,2023-12-07 03:14:51,15.08840463,0.0003014,53.2181,316.1904,105.9859,254.1465,0.00024161,3.559e-05,0.0,0 STARLINK-5123,1 53979U 22125R   23341.13531857  .00003559  00000-0  24161-3 0  9990,2 53979  53.2181 316.1904 0003014 105.9859 254.1465 15.08840463 65135,6917.879,95.438,541.829,537.659,0.0
53979.0,STARLINK-5123,PAYLOAD,2023-12-07 04:50:14,15.08838594,0.0002893,53.2179,315.8933,108.5728,251.5579,0.00021324,3.107e-05,0.0,0 STARLINK-5123,1 53979U 22125R   23341.20155874  .00003107  00000-0  21324-3 0  9996,2 53979  53.2179 315.8933 0002893 108.5728 251.5579 15.08838594 65070,6917.885,95.438,541.751,537.748,0.0
53979.0,STARLINK-5123,PAYLOAD,2023-12-08 03:05:39,15.08838177,0.0002774,53.2175,311.7321,101.1342,258.9962,0.00021571,3.146e-05,0.0,0 STARLINK-5123,1 53979U 22125R   23342.12892533  .00003146  00000-0  21571-3 0  9995,2 53979  53.2175 311.7321 0002774 101.1342 258.9962 15.08838177 65288,6917.886,95.438,541.67,537.832,0.0
53979.0,STARLINK-5123,PAYLOAD,2023-12-08 07:51:48,15.08839257,0.0002765,53.2172,310.8418,99.6165,260.514,0.00014786,2.066e-05,0.0,0 STARLINK-5123,1 53979U 22125R   23342.32764496  .00002066  00000-0  14786-3 0  9993,2 53979  53.2172 310.8418 0002765  99.6165 260.5140 15.08839257 65249,6917.883,95.438,541.66,537.835,0.0
53979.0,STARLINK-5123,PAYLOAD,2023-12-09 04:31:49,15.08845425,0.0002682,53.2174,306.9756,95.7009,264.4289,0.00024983,3.691e-05,0.0,0 STARLINK-5123,1 53979U 22125R   23343.18876337  .00003691  00000-0  24983-3 0  9991,2 53979  53.2174 306.9756 0002682  95.7009 264.4289 15.08845425 65447,6917.864,95.437,541.584,537.873,0.0
53979.0,STARLINK-5123,PAYLOAD,2023-12-09 20:25:40,15.08845182,0.0002743,53.2177,304.0071,100.7698,259.3603,0.00014627,2.041e-05,0.0,0 STARLINK-5123,1 53979U 22125R   23343.85116245  .00002041  00000-0  14627-3 0  9992,2 53979  53.2177 304.0071 0002743 100.7698 259.3603 15.08845182 65474,6917.865,95.437,541.627,537.832,0.0
53979.0,STARLINK-5123,PAYLOAD,2023-12-11 02:38:00,15.08843443,0.0002684,53.2174,298.3531,105.4658,254.6631,-5.8801e-05,-1.224e-05,0.0,0 STARLINK-5123,1 53979U 22125R   23345.10972389 -.00001224  00000-0 -58801-4 0  9998,2 53979  53.2174 298.3531 0002684 105.4658 254.6631 15.08843443 65735,6917.87,95.437,541.592,537.878,0.0
53979.0,STARLINK-5123,PAYLOAD,2023-12-12 04:04:10,15.08840394,0.0002462,53.2178,293.5985,90.9275,269.1999,0.00014086,1.954e-05,0.0,0 STARLINK-5123,1 53979U 22125R   23346.16956888  .00001954  00000-0  14086-3 0  9995,2 53979  53.2178 293.5985 0002462  90.9275 269.1999 15.08840394 65893,6917.879,95.438,541.447,538.041,0.0
53979.0,STARLINK-5123,PAYLOAD,2023-12-13 03:54:57,15.08843369,0.0002496,53.2172,289.1385,85.9047,274.2231,0.0001408,1.953e-05,0.0,0 STARLINK-5123,1 53979U 22125R   23347.16316869  .00001953  00000-0  14080-3 0  9998,2 53979  53.2172 289.1385 0002496  85.9047 274.2231 15.08843369 65970,6917.87,95.437,541.462,538.008,0.0
53979.0,STARLINK-5123,PAYLOAD,2023-12-14 03:45:44,15.08844789,0.0002748,53.218,284.6777,79.0731,281.057,0.00012601,1.718e-05,0.0,0 STARLINK-5123,1 53979U 22125R   23348.15676913  .00001718  00000-0  12601-3 0  9993,2 53979  53.2180 284.6777 0002748  79.0731 281.0570 15.08844789 66192,6917.866,95.437,541.632,537.83,0.0
53979.0,STARLINK-5123,PAYLOAD,2023-12-15 02:01:08,15.08839,0.0002798,53.2184,280.5137,78.0763,282.0543,0.000404,6.147e-05,0.0,0 STARLINK-5123,1 53979U 22125R   23349.08413082  .00006147  00000-0  40400-3 0  9991,2 53979  53.2184 280.5137 0002798  78.0763 282.0543 15.08839000 66337,6917.883,95.438,541.684,537.813,0.0
53979.0,STARLINK-5123,PAYLOAD,2023-12-15 22:41:09,15.08836476,0.0002359,53.2179,276.648,91.3576,268.7686,-2.3563e-05,-6.63e-06,0.0,0 STARLINK-5123,1 53979U 22125R   23349.94525207 -.00000663  00000-0 -23563-4 0  9990,2 53979  53.2179 276.6480 0002359  91.3576 268.7686 15.08836476 66390,6917.891,95.438,541.388,538.124,0.0
53979.0,STARLINK-5123,PAYLOAD,2023-12-16 01:51:55,15.08837299,0.0002502,53.2175,276.0532,100.6937,259.4337,-1.7514e-05,-5.67e-06,0.0,0 STARLINK-5123,1 53979U 22125R   23350.07773115 -.00000567  00000-0 -17514-4 0  9991,2 53979  53.2175 276.0532 0002502 100.6937 259.4337 15.08837299 66487,6917.889,95.438,541.485,538.023,0.0
53979.0,STARLINK-5123,PAYLOAD,2023-12-16 22:31:55,15.08851508,0.0002292,53.2176,272.1807,81.9812,278.144,8.8605e-05,1.123e-05,0.0,0 STARLINK-5123,1 53979U 22125R   23350.93884008  .00001123  00000-0  88605-4 0  9996,2 53979  53.2176 272.1807 0002292  81.9812 278.1440 15.08851508 66548,6917.845,95.437,541.296,538.125,0.0
53979.0,STARLINK-5123,PAYLOAD,2023-12-17 01:42:41,15.08855869,0.0002461,53.2177,271.5871,76.6678,283.4588,0.00014699,2.053e-05,0.0,0 STARLINK-5123,1 53979U 22125R   23351.07131799  .00002053  00000-0  14699-3 0  9998,2 53979  53.2177 271.5871 0002461  76.6678 283.4588 15.08855869 66638,6917.832,95.437,541.399,537.994,0.0
53979.0,STARLINK-5123,PAYLOAD,2023-12-17 22:22:43,15.08844537,0.0002328,53.2173,267.7248,103.4111,256.7141,0.00013593,1.876e-05,0.0,0 STARLINK-5123,1 53979U 22125R   23351.93244273  .00001876  00000-0  13593-3 0  9999,2 53979  53.2173 267.7248 0002328 103.4111 256.7141 15.08844537 66696,6917.867,95.437,541.342,538.121,0.0
53979.0,STARLINK-5123,PAYLOAD,2023-12-18 01:33:29,15.08851287,0.0002331,53.2169,267.1297,107.8477,252.277,0.00017266,2.462e-05,0.0,0 STARLINK-5123,1 53979U 22125R   23352.06491907  .00002462  00000-0  17266-3 0  9995,2 53979  53.2169 267.1297 0002331 107.8477 252.2770 15.08851287 66785,6917.846,95.437,541.323,538.098,0.0
53979.0,STARLINK-5123,PAYLOAD,2023-12-18 22:13:30,15.0883186,0.00024,53.2169,263.2669,111.486,248.6388,-0.00020293,-3.516e-05,0.0,0 STARLINK-5123,1 53979U 22125R   23352.92604930 -.00003516  00000-0 -20293-3 0  9999,2 53979  53.2169 263.2669 0002400 111.4860 248.6388 15.08831860 66845,6917.905,95.438,541.431,538.11,0.0
53979.0,STARLINK-5123,PAYLOAD,2023-12-19 01:24:17,15.08825802,0.0002184,53.2168,262.6718,105.2432,254.8801,-0.00023489,-4.023e-05,0.0,0 STARLINK-5123,1 53979U 22125R   23353.05853133 -.00004023  00000-0 -23489-3 0  9999,2 53979  53.2168 262.6718 0002184 105.2432 254.8801 15.08825802 66935,6917.924,95.438,541.3,538.278,0.0
53979.0,STARLINK-5123,PAYLOAD,2023-12-20 01:15:04,15.08843093,0.0001899,53.2158,258.211,98.5237,261.597,0.00029544,4.417e-05,0.0,0 STARLINK-5123,1 53979U 22125R   23354.05213457  .00004417  00000-0  29544-3 0  9992,2 53979  53.2158 258.2110 0001899  98.5237 261.5970 15.08843093 67081,6917.871,95.437,541.05,538.422,0.0
53979.0,STARLINK-5123,PAYLOAD,2023-12-20 21:55:05,15.08852267,0.0001819,53.2156,254.3451,94.1934,265.9266,0.00041715,6.359e-05,0.0,0 STARLINK-5123,1 53979U 22125R   23354.91325234  .00006359  00000-0  41715-3 0  9995,2 53979  53.2156 254.3451 0001819  94.1934 265.9266 15.08852267 67148,6917.843,95.437,540.966,538.45,0.0
53979.0,STARLINK-5123,PAYLOAD,2023-12-21 01:05:51,15.08857101,0.000214,53.2158,253.751,75.9792,284.1438,0.00047115,7.222e-05,0.0,0 STARLINK-5123,1 53979U 22125R   23355.04573212  .00007222  00000-0  47115-3 0  9991,2 53979  53.2158 253.7510 0002140  75.9792 284.1438 15.08857101 67164,6917.828,95.436,541.174,538.213,0.0
53979.0,STARLINK-5123,PAYLOAD,2023-12-21 21:45:52,15.08841712,0.000168,53.216,249.8867,96.2781,263.8402,5.2412e-05,5.46e-06,0.0,0 STARLINK-5123,1 53979U 22125R   23355.90685344  .00000546  00000-0  52412-4 0  9995,2 53979  53.2160 249.8867 0001680  96.2781 263.8402 15.08841712 67290,6917.875,95.437,540.902,538.578,0.0
53979.0,STARLINK-5123,PAYLOAD,2023-12-21 23:21:15,15.0884134,0.0001668,53.2161,249.5892,98.0704,262.0478,5.4964e-05,5.87e-06,0.0,0 STARLINK-5123,1 53979U 22125R   23355.97309341  .00000587  00000-0  54964-4 0  9991,2 53979  53.2161 249.5892 0001668  98.0704 262.0478 15.08841340 67377,6917.876,95.437,540.895,538.587,0.0
53979.0,STARLINK-5123,PAYLOAD,2023-12-22 21:36:39,15.08841376,0.0001583,53.2163,245.4278,92.1672,267.9501,0.00016762,2.381e-05,0.0,0 STARLINK-5123,1 53979U 22125R   23356.90045691  .00002381  00000-0  16762-3 0  9997,2 53979  53.2163 245.4278 0001583  92.1672 267.9501 15.08841376 67445,6917.876,95.437,540.836,538.646,0.0
53979.0,STARLINK-5123,PAYLOAD,2023-12-22 23:12:02,15.08842787,0.0001757,53.2165,245.1381,111.8177,248.3002,0.00022672,3.322e-05,0.0,0 STARLINK-5123,1 53979U 22125R   23356.96669641  .00003322  00000-0  22672-3 0  9993,2 53979  53.2165 245.1381 0001757 111.8177 248.3002 15.08842787 67458,6917.872,95.437,540.952,538.521,0.0
53979.0,STARLINK-5123,PAYLOAD,2023-12-23 19:52:03,15.08842246,0.0001592,53.2172,241.2631,90.7649,269.3526,0.00020426,2.964e-05,0.0,0 STARLINK-5123,1 53979U 22125R   23357.82781899  .00002964  00000-0  20426-3 0  9995,2 53979  53.2172 241.2631 0001592  90.7649 269.3526 15.08842246 67653,6917.874,95.437,540.84,538.637,0.0
53979.0,STARLINK-5123,PAYLOAD,2023-12-23 21:27:26,15.08842094,0.0001604,53.2169,240.9656,88.4734,271.6442,0.00018703,2.69e-05,0.0,0 STARLINK-5123,1 53979U 22125R   23357.89405883  .00002690  00000-0  18703-3 0  9999,2 53979  53.2169 240.9656 0001604  88.4734 271.6442 15.08842094 67592,6917.874,95.437,540.849,538.629,0.0
53979.0,STARLINK-5123,PAYLOAD,2023-12-24 02:13:35,15.0884719,0.0001591,53.2164,240.07,93.1878,266.9296,0.00029909,4.476e-05,0.0,0 STARLINK-5123,1 53979U 22125R   23358.09277650  .00004476  00000-0  29909-3 0  9995,2 53979  53.2164 240.0700 0001591  93.1878 266.9296 15.08847190 67625,6917.858,95.437,540.824,538.623,0.0
